[{"OBJECT_NAME":"SHIYAN-24C 01","OBJECT_ID":"2023-206A","EPOCH":"2026-03-09T21:26:37.340736","MEAN_MOTION":14.97903598,"ECCENTRICITY":0.0003675,"INCLINATION":97.3976,"RA_OF_ASC_NODE":41.7846,"ARG_OF_PERICENTER":132.3262,"MEAN_ANOMALY":227.8273,"EPHEMERIS_TYPE":0,"CLASSIFICATION_TYPE":"U","NORAD_CAT_ID":58650,"ELEMENT_SET_NO":999,"REV_AT_EPOCH":12044,"BSTAR":0.00018089,"MEAN_MOTION_DOT":2.076e-5,"MEAN_MOTION_DDOT":0},{"OBJECT_NAME":"STARLINK-33943","OBJECT_ID":"2025-094W","EPOCH":"2026-03-09T20:43:22.907712","MEAN_MOTION":14.98344036,"ECCENTRICITY":0.00031311,"INCLINATION":70.0014,"RA_OF_ASC_NODE":233.8376,"ARG_OF_PERICENTER":269.1852,"MEAN_ANOMALY":90.8948,"EPHEMERIS_TYPE":0,"CLASSIFICATION_TYPE":"U","NORAD_CAT_ID":63884,"ELEMENT_SET_NO":999,"REV_AT_EPOCH":4723,"BSTAR":0.001076013,"MEAN_MOTION_DOT":0.00012774,"MEAN_MOTION_DDOT":0}]
